[{"OBJECT_NAME":"TOMORROW-S4","OBJECT_ID":"2024-247K","EPOCH":"2026-03-09T12:47:35.836224","MEAN_MOTION":15.27717249,"ECCENTRICITY":0.00044343,"INCLINATION":44.9818,"RA_OF_ASC_NODE":117.9996,"ARG_OF_PERICENTER":210.4078,"MEAN_ANOMALY":149.6548,"EPHEMERIS_TYPE":0,"CLASSIFICATION_TYPE":"U","NORAD_CAT_ID":62386,"ELEMENT_SET_NO":999,"REV_AT_EPOCH":6770,"BSTAR":0.00046927249,"MEAN_MOTION_DOT":0.00012677,"MEAN_MOTION_DDOT":0},{"OBJECT_NAME":"STARLINK-35863","OBJECT_ID":"2025-303H","EPOCH":"2026-03-09T01:07:00.537600","MEAN_MOTION":15.2758932,"ECCENTRICITY":0.00015011,"INCLINATION":42.9985,"RA_OF_ASC_NODE":314.6176,"ARG_OF_PERICENTER":262.5934,"MEAN_ANOMALY":97.4747,"EPHEMERIS_TYPE":0,"CLASSIFICATION_TYPE":"U","NORAD_CAT_ID":67170,"ELEMENT_SET_NO":999,"REV_AT_EPOCH":1263,"BSTAR":0.0018938385,"MEAN_MOTION_DOT":0.00052237,"MEAN_MOTION_DDOT":0}]
