TOMORROW-S4             
1 62386U 24247K   26068.53305366  .00012677  00000+0  46927-3 0  9990
2 62386  44.9818 117.9996 0004434 210.4078 149.6548 15.27717249 67702
STARLINK-35863          
1 67170U 25303H   26068.04653400  .00052237  00000+0  18938-2 0  9997
2 67170  42.9985 314.6176 0001501 262.5934  97.4747 15.27589320 12638
